STARLINK-35428          
1 66115U 25237B   26001.95275998  .00078843  00000+0  19594-2 0  9990
2 66115  53.1634 352.3968 0001407  75.7456 284.3705 15.39640133 12349
STARLINK-35573          
1 66116U 25237C   26001.99445324  .00078685  00000+0  19547-2 0  9999
2 66116  53.1609 351.9471 0001486 100.5415 259.5757 15.39653881 12362
STARLINK-35572          
1 66117U 25237D   26001.94811892  .00066350  00000+0  16538-2 0  9995
2 66117  53.1618 352.3666 0001468  89.4680 270.6493 15.39629234 12358
STARLINK-35468          
1 66118U 25237E   26001.95740285  .00083230  00000+0  20652-2 0  9992
2 66118  53.1631 352.4245 0001479 106.2745 253.8422 15.39662220 12357
STARLINK-35547          
1 66119U 25237F   26001.47978161  .00059830  00000+0  14921-2 0  9997
2 66119  53.1618 354.4172 0001473 108.4797 251.6368 15.39658432 12286
STARLINK-35553          
1 66120U 25237G   26002.16668980 -.00093588  00000+0 -23559-2 0  9998
2 66120  53.1606 351.2845 0001235  94.3271  63.6988 15.39654175  5880
STARLINK-35631          
1 66121U 25237H   26001.98980995  .00095647  00000+0  23680-2 0  9992
2 66121  53.1607 351.9140 0001745 108.0215 252.0980 15.39662193 12360
STARLINK-35653          
1 66122U 25237J   26001.98515869  .00082622  00000+0  20475-2 0  9995
2 66122  53.1620 351.8881 0001623  99.0782 261.0407 15.39704798 12362
STARLINK-35628          
1 66123U 25237K   26002.10570623  .00092012  00000+0  22767-2 0  9990
2 66123  53.1622 351.2134 0002041 147.4749 212.6382 15.39698405 12389
STARLINK-35645          
1 66124U 25237L   26001.98052435  .00121243  00000+0  29850-2 0  9991
2 66124  53.1614 351.8529 0001481  97.0839 263.0335 15.39702354 12367
STARLINK-35649          
1 66125U 25237M   26001.96659357  .00093469  00000+0  23164-2 0  9996
2 66125  53.1622 351.7681 0001349  87.1326 272.9833 15.39643537 12368
STARLINK-35658          
1 66126U 25237N   26002.00003471  .00059863  00000+0  14974-2 0  9992
2 66126  53.1615 351.6563 0001261  93.4459  66.3996 15.39568162  5917
STARLINK-35629          
1 66127U 25237P   26001.96194840  .00064625  00000+0  16105-2 0  9998
2 66127  53.1620 351.7337 0001333 137.1991 222.9118 15.39647692 12360
STARLINK-35612          
1 66128U 25237Q   26002.14749709  .00084954  00000+0  19241-2 0  9991
2 66128  53.1623 351.4756 0011810 229.9434 130.0537 15.42342266 12388
STARLINK-35632          
1 66129U 25237R   26002.14319719  .00100160  00000+0  24804-2 0  9995
2 66129  53.1623 351.4490 0001189  78.0087 282.1051 15.39630366 12386
STARLINK-35637          
1 66130U 25237S   26002.13821970  .00127006  00000+0  30558-2 0  9994
2 66130  53.1616 351.4157 0001777 287.8907  72.1904 15.40373587 12389
STARLINK-35630          
1 66131U 25237T   26002.13392758  .00084260  00000+0  20895-2 0  9999
2 66131  53.1601 351.3869 0001496 111.6410 248.4755 15.39674857 12388
STARLINK-34412          
1 66132U 25237U   26002.12926456  .00079275  00000+0  19722-2 0  9994
2 66132  53.1599 351.3581 0001182  72.9042 287.2092 15.39606761 12292
STARLINK-35520          
1 66133U 25237V   26002.12427650  .00169183  00000+0  37903-2 0  9996
2 66133  53.1601 351.3289 0011980 225.3026 134.7005 15.42268897 12383
STARLINK-35525          
1 66134U 25237W   26002.11963458  .00323730  00000+0  67711-2 0  9997
2 66134  53.1610 351.2988 0017879 226.4143 133.5380 15.43605089 12386
STARLINK-34852          
1 66135U 25237X   26002.11498190  .00206911  00000+0  43817-2 0  9996
2 66135  53.1612 351.2752 0018156 228.8552 131.0888 15.43693665 12346
STARLINK-35592          
1 66136U 25237Y   26002.10604575  .00063320  00000+0  15783-2 0  9998
2 66136  53.1616 351.2086 0001655 103.9460 256.1729 15.39649603 12383
STARLINK-35576          
1 66137U 25237Z   26001.66667823  .00030171  00000+0  76248-3 0  9996
2 66137  53.1612 353.1787 0001316  99.4240  35.6054 15.39571963  5913
STARLINK-35623          
1 66138U 25237AA  26002.15239117  .00065932  00000+0  16451-2 0  9995
2 66138  53.1620 350.7920 0001708  50.0557 310.0598 15.39599697 12391
STARLINK-35549          
1 66139U 25237AB  26002.10106432  .00075149  00000+0  18194-2 0  9991
2 66139  53.1610 351.1781 0002526 239.9023 120.1732 15.40456747 12385
STARLINK-35625          
1 66140U 25237AC  26002.11035281  .00129412  00000+0  30883-2 0  9999
2 66140  53.1611 351.2397 0003511 229.6079 130.4620 15.40607068 12388
STARLINK-35603          
1 66141U 25237AD  26001.96228585  .00082596  00000+0  20495-2 0  9992
2 66141  53.1616 351.7363 0002090  99.1607 260.9634 15.39665990 12368
TJS-20                  
1 66142U 25238A   26001.97522859  .00000041  00000+0  00000+0 0  9998
2 66142   5.8403 300.2152 0004666  63.5476 151.3269  1.00270636   661
SPAINSAT NG II          
1 66144U 25239A   26001.70518510 -.00000132  00000+0  00000+0 0  9993
2 66144  15.6674 239.1910 7627027 191.0072 128.9109  0.96963102   734
STARLINK-35318          
1 66146U 25240A   26002.05858756  .00040006  00000+0  13536-2 0  9999
2 66146  53.1604  12.5391 0003126 112.9043 247.2288 15.30244436 11835
