OBJECT_NAME,OBJECT_ID,EPOCH,MEAN_MOTION,ECCENTRICITY,INCLINATION,RA_OF_ASC_NODE,ARG_OF_PERICENTER,MEAN_ANOMALY,EPHEMERIS_TYPE,CLASSIFICATION_TYPE,NORAD_CAT_ID,ELEMENT_SET_NO,REV_AT_EPOCH,BSTAR,MEAN_MOTION_DOT,MEAN_MOTION_DDOT
STARLINK-35428,2025-237B,2026-01-01T22:51:58.462272,15.39640133,.0001407,53.1634,352.3968,75.7456,284.3705,0,U,66115,999,1234,.19594E-2,.78843E-3,0
STARLINK-35573,2025-237C,2026-01-01T23:52:00.759936,15.39653881,.0001486,53.1609,351.9471,100.5415,259.5757,0,U,66116,999,1236,.19547E-2,.78685E-3,0
STARLINK-35572,2025-237D,2026-01-01T22:45:17.474688,15.39629234,.0001468,53.1618,352.3666,89.4680,270.6493,0,U,66117,999,1235,.16538E-2,.6635E-3,0
STARLINK-35468,2025-237E,2026-01-01T22:58:39.606240,15.39662220,.0001479,53.1631,352.4245,106.2745,253.8422,0,U,66118,999,1235,.20652E-2,.8323E-3,0
STARLINK-35547,2025-237F,2026-01-01T11:30:53.131104,15.39658432,.0001473,53.1618,354.4172,108.4797,251.6368,0,U,66119,999,1228,.14921E-2,.5983E-3,0
STARLINK-35553,2025-237G,2026-01-02T04:00:01.998720,15.39654175,.0001235,53.1606,351.2845,94.3271,63.6988,0,U,66120,999,588,-.23559E-2,-.93588E-3,0
STARLINK-35631,2025-237H,2026-01-01T23:45:19.579680,15.39662193,.0001745,53.1607,351.9140,108.0215,252.0980,0,U,66121,999,1236,.2368E-2,.95647E-3,0
STARLINK-35653,2025-237J,2026-01-01T23:38:37.710816,15.39704798,.0001623,53.1620,351.8881,99.0782,261.0407,0,U,66122,999,1236,.20475E-2,.82622E-3,0
STARLINK-35628,2025-237K,2026-01-02T02:32:13.018272,15.39698405,.0002041,53.1622,351.2134,147.4749,212.6382,0,U,66123,999,1238,.22767E-2,.92012E-3,0
STARLINK-35645,2025-237L,2026-01-01T23:31:57.303840,15.39702354,.0001481,53.1614,351.8529,97.0839,263.0335,0,U,66124,999,1236,.2985E-2,.121243E-2,0
STARLINK-35649,2025-237M,2026-01-01T23:11:53.684448,15.39643537,.0001349,53.1622,351.7681,87.1326,272.9833,0,U,66125,999,1236,.23164E-2,.93469E-3,0
STARLINK-35658,2025-237N,2026-01-02T00:00:02.998944,15.39568162,.0001261,53.1615,351.6563,93.4459,66.3996,0,U,66126,999,591,.14974E-2,.59863E-3,0
STARLINK-35629,2025-237P,2026-01-01T23:05:12.341760,15.39647692,.0001333,53.1620,351.7337,137.1991,222.9118,0,U,66127,999,1236,.16105E-2,.64625E-3,0
STARLINK-35612,2025-237Q,2026-01-02T03:32:23.748576,15.42342266,.001181,53.1623,351.4756,229.9434,130.0537,0,U,66128,999,1238,.19241E-2,.84954E-3,0
STARLINK-35632,2025-237R,2026-01-02T03:26:12.237216,15.39630366,.0001189,53.1623,351.4490,78.0087,282.1051,0,U,66129,999,1238,.24804E-2,.10016E-2,0
STARLINK-35637,2025-237S,2026-01-02T03:19:02.182080,15.40373587,.0001777,53.1616,351.4157,287.8907,72.1904,0,U,66130,999,1238,.30558E-2,.127006E-2,0
STARLINK-35630,2025-237T,2026-01-02T03:12:51.342912,15.39674857,.0001496,53.1601,351.3869,111.6410,248.4755,0,U,66131,999,1238,.20895E-2,.8426E-3,0
STARLINK-34412,2025-237U,2026-01-02T03:06:08.457984,15.39606761,.0001182,53.1599,351.3581,72.9042,287.2092,0,U,66132,999,1229,.19722E-2,.79275E-3,0
STARLINK-35520,2025-237V,2026-01-02T02:58:57.489600,15.42268897,.001198,53.1601,351.3289,225.3026,134.7005,0,U,66133,999,1238,.37903E-2,.169183E-2,0
STARLINK-35525,2025-237W,2026-01-02T02:52:16.427712,15.43605089,.0017879,53.1610,351.2988,226.4143,133.5380,0,U,66134,999,1238,.67711E-2,.32373E-2,0
STARLINK-34852,2025-237X,2026-01-02T02:45:34.436160,15.43693665,.0018156,53.1612,351.2752,228.8552,131.0888,0,U,66135,999,1234,.43817E-2,.206911E-2,0
STARLINK-35592,2025-237Y,2026-01-02T02:32:42.352800,15.39649603,.0001655,53.1616,351.2086,103.9460,256.1729,0,U,66136,999,1238,.15783E-2,.6332E-3,0
STARLINK-35576,2025-237Z,2026-01-01T16:00:00.999072,15.39571963,.0001316,53.1612,353.1787,99.4240,35.6054,0,U,66137,999,591,.76248E-3,.30171E-3,0
STARLINK-35623,2025-237AA,2026-01-02T03:39:26.597088,15.39599697,.0001708,53.1620,350.7920,50.0557,310.0598,0,U,66138,999,1239,.16451E-2,.65932E-3,0
STARLINK-35549,2025-237AB,2026-01-02T02:25:31.957248,15.40456747,.0002526,53.1610,351.1781,239.9023,120.1732,0,U,66139,999,1238,.18194E-2,.75149E-3,0
STARLINK-35625,2025-237AC,2026-01-02T02:38:54.482784,15.40607068,.0003511,53.1611,351.2397,229.6079,130.4620,0,U,66140,999,1238,.30883E-2,.129412E-2,0
STARLINK-35603,2025-237AD,2026-01-01T23:05:41.497440,15.39665990,.000209,53.1616,351.7363,99.1607,260.9634,0,U,66141,999,1236,.20495E-2,.82596E-3,0
TJS-20,2025-238A,2026-01-01T23:24:19.750176,1.00270636,.0004666,5.8403,300.2152,63.5476,151.3269,0,U,66142,999,66,0,.41E-6,0
SPAINSAT NG II,2025-239A,2026-01-01T16:55:27.992640,0.96963102,.7627027,15.6674,239.1910,191.0072,128.9109,0,U,66144,999,73,0,-.132E-5,0
STARLINK-35318,2025-240A,2026-01-02T01:24:21.965184,15.30244436,.0003126,53.1604,12.5391,112.9043,247.2288,0,U,66146,999,1183,.13536E-2,.40006E-3,0
